start=new Date('2022-08-01T00:00:00.000Z').valueOf();
sats=[{"DECAY_DATE":null,"CENTER_NAME":"EARTH","INCLINATION":"53.0563","REF_FRAME":"TEME","MEAN_ELEMENT_THEORY":"SGP4","ARG_OF_PERICENTER":"81.1455","OBJECT_TYPE":"PAYLOAD","ECCENTRICITY":"0.00014160","SEMIMAJOR_AXIS":"6925.343","TLE_LINE2":"2 48093  53.0563 313.7365 0001416  81.1455 278.9694 15.06401889 74066","OBJECT_ID":"2021-027B","CLASSIFICATION_TYPE":"U","GP_ID":"209295872","EPOCH":"2022-07-31T18:19:30.904032","COUNTRY_CODE":"US","RCS_SIZE":"LARGE","FILE":"3526413","TLE_LINE1":"1 48093U 21027B   22212.76355213 -.00000036  00000-0  16464-4 0  9992","ELEMENT_SET_NO":"999","PERIAPSIS":"546.227","PERIOD":"95.592","TIME_SYSTEM":"UTC","NORAD_CAT_ID":"48093","APOAPSIS":"548.188","SITE":"AFETR","REV_AT_EPOCH":"7406","MEAN_MOTION_DDOT":"0.0000000000000","MEAN_MOTION":"15.06401889","OBJECT_NAME":"STARLINK-2404","MEAN_ANOMALY":"278.9694","BSTAR":"0.00001646400000","LAUNCH_DATE":"2021-04-07","EPHEMERIS_TYPE":"0","RA_OF_ASC_NODE":"313.7365","MEAN_MOTION_DOT":"-0.00000036"},{"MEAN_MOTION":"15.06396644","MEAN_MOTION_DDOT":"0.0000000000000","EPHEMERIS_TYPE":"0","RA_OF_ASC_NODE":"323.4664","OBJECT_NAME":"STARLINK-2412","MEAN_ANOMALY":"278.8045","BSTAR":"0.00005838100000","LAUNCH_DATE":"2021-04-07","MEAN_MOTION_DOT":"0.00000588","TLE_LINE1":"1 48094U 21027C   22212.78103503  .00000588  00000-0  58381-4 0  9993","COUNTRY_CODE":"US","RCS_SIZE":"LARGE","FILE":"3526413","PERIAPSIS":"546.410","ELEMENT_SET_NO":"999","NORAD_CAT_ID":"48094","SITE":"AFETR","APOAPSIS":"548.038","PERIOD":"95.592","TIME_SYSTEM":"UTC","REV_AT_EPOCH":"7393","SEMIMAJOR_AXIS":"6925.359","TLE_LINE2":"2 48094  53.0558 323.4664 0001175  81.3077 278.8045 15.06396644 73931","ECCENTRICITY":"0.00011750","OBJECT_ID":"2021-027C","CLASSIFICATION_TYPE":"U","GP_ID":"209295125","EPOCH":"2022-07-31T18:44:41.426592","CENTER_NAME":"EARTH","INCLINATION":"53.0558","DECAY_DATE":null,"ARG_OF_PERICENTER":"81.3077","REF_FRAME":"TEME","MEAN_ELEMENT_THEORY":"SGP4","OBJECT_TYPE":"PAYLOAD"},{"MEAN_MOTION_DDOT":"0.0000000000000","MEAN_MOTION":"15.06397274","MEAN_MOTION_DOT":"0.00000034","MEAN_ANOMALY":"284.1141","OBJECT_NAME":"STARLINK-2414","LAUNCH_DATE":"2021-04-07","BSTAR":"0.00002117600000","RA_OF_ASC_NODE":"323.7147","EPHEMERIS_TYPE":"0","ELEMENT_SET_NO":"999","PERIAPSIS":"546.199","COUNTRY_CODE":"US","RCS_SIZE":"MEDIUM","FILE":"3526413","TLE_LINE1":"1 48095U 21027D   22212.72206612  .00000034  00000-0  21176-4 0  9991","REV_AT_EPOCH":"7393","PERIOD":"95.592","TIME_SYSTEM":"UTC","NORAD_CAT_ID":"48095","SITE":"AFETR","APOAPSIS":"548.245","ECCENTRICITY":"0.00014770","TLE_LINE2":"2 48095  53.0557 323.7147 0001477  76.0012 284.1141 15.06397274 73932","SEMIMAJOR_AXIS":"6925.357","EPOCH":"2022-07-31T17:19:46.512768","GP_ID":"209295375","CLASSIFICATION_TYPE":"U","OBJECT_ID":"2021-027D","REF_FRAME":"TEME","MEAN_ELEMENT_THEORY":"SGP4","ARG_OF_PERICENTER":"76.0012","DECAY_DATE":null,"CENTER_NAME":"EARTH","INCLINATION":"53.0557","OBJECT_TYPE":"PAYLOAD"},{"MEAN_MOTION_DDOT":"0.0000000000000","MEAN_MOTION":"15.06389871","MEAN_MOTION_DOT":"0.00000003","BSTAR":"0.00001910500000","LAUNCH_DATE":"2021-04-07","MEAN_ANOMALY":"283.3025","OBJECT_NAME":"STARLINK-2417","RA_OF_ASC_NODE":"323.8327","EPHEMERIS_TYPE":"0","ELEMENT_SET_NO":"999","PERIAPSIS":"546.267","FILE":"3526413","RCS_SIZE":"LARGE","COUNTRY_CODE":"US","TLE_LINE1":"1 48096U 21027E   22212.69627300  .00000003  00000-0  19105-4 0  9994","REV_AT_EPOCH":"7391","TIME_SYSTEM":"UTC","PERIOD":"95.593","APOAPSIS":"548.222","SITE":"AFETR","NORAD_CAT_ID":"48096","ECCENTRICITY":"0.00014120","SEMIMAJOR_AXIS":"6925.380","TLE_LINE2":"2 48096  53.0556 323.8327 0001412  76.8122 283.3025 15.06389871 73916","GP_ID":"209295626","CLASSIFICATION_TYPE":"U","EPOCH":"2022-07-31T16:42:37.987200","OBJECT_ID":"2021-027E","MEAN_ELEMENT_THEORY":"SGP4","REF_FRAME":"TEME","ARG_OF_PERICENTER":"76.8122","DECAY_DATE":null,"INCLINATION":"53.0556","CENTER_NAME":"EARTH","OBJECT_TYPE":"PAYLOAD"},{"MEAN_MOTION_DDOT":"0.0000000000000","MEAN_MOTION":"15.06396752","MEAN_ANOMALY":"265.5010","OBJECT_NAME":"STARLINK-2418","BSTAR":"0.00007917800000","LAUNCH_DATE":"2021-04-07","RA_OF_ASC_NODE":"304.5312","EPHEMERIS_TYPE":"0","MEAN_MOTION_DOT":"0.00000898","COUNTRY_CODE":"US","RCS_SIZE":"LARGE","FILE":"3526169","TLE_LINE1":"1 48097U 21027F   22212.54329134  .00000898  00000-0  79178-4 0  9991","ELEMENT_SET_NO":"999","PERIAPSIS":"546.409","PERIOD":"95.592","TIME_SYSTEM":"UTC","NORAD_CAT_ID":"48097","APOAPSIS":"548.038","SITE":"AFETR","REV_AT_EPOCH":"7417","ECCENTRICITY":"0.00011760","TLE_LINE2":"2 48097  53.0554 304.5312 0001176  94.6113 265.5010 15.06396752 74171","SEMIMAJOR_AXIS":"6925.359","OBJECT_ID":"2021-027F","EPOCH":"2022-07-31T13:02:20.371776","GP_ID":"209264312","CLASSIFICATION_TYPE":"U","DECAY_DATE":null,"CENTER_NAME":"EARTH","INCLINATION":"53.0554","REF_FRAME":"TEME","MEAN_ELEMENT_THEORY":"SGP4","ARG_OF_PERICENTER":"94.6113","OBJECT_TYPE":"PAYLOAD"},{"EPHEMERIS_TYPE":"0","RA_OF_ASC_NODE":"314.0410","LAUNCH_DATE":"2021-04-07","BSTAR":"0.00004773400000","OBJECT_NAME":"STARLINK-2421","MEAN_ANOMALY":"283.0486","MEAN_MOTION_DOT":"0.00000430","MEAN_MOTION":"15.06393106","MEAN_MOTION_DDOT":"0.0000000000000","SITE":"AFETR","APOAPSIS":"548.125","NORAD_CAT_ID":"48098","TIME_SYSTEM":"UTC","PERIOD":"95.593","REV_AT_EPOCH":"7404","TLE_LINE1":"1 48098U 21027G   22212.65295739  .00000430  00000-0  47734-4 0  9992","FILE":"3526413","RCS_SIZE":"LARGE","COUNTRY_CODE":"US","PERIAPSIS":"546.344","ELEMENT_SET_NO":"999","OBJECT_ID":"2021-027G","GP_ID":"209294626","EPOCH":"2022-07-31T15:40:15.518496","CLASSIFICATION_TYPE":"U","SEMIMAJOR_AXIS":"6925.370","TLE_LINE2":"2 48098  53.0545 314.0410 0001286  77.0647 283.0486 15.06393106 74044","ECCENTRICITY":"0.00012860","OBJECT_TYPE":"PAYLOAD","INCLINATION":"53.0545","CENTER_NAME":"EARTH","DECAY_DATE":null,"ARG_OF_PERICENTER":"77.0647","MEAN_ELEMENT_THEORY":"SGP4","REF_FRAME":"TEME"},{"CLASSIFICATION_TYPE":"U","GP_ID":"209264814","EPOCH":"2022-07-31T13:47:27.805632","OBJECT_ID":"2021-027H","ECCENTRICITY":"0.00014110","SEMIMAJOR_AXIS":"6925.355","TLE_LINE2":"2 48099  53.0559 324.3862 0001411  84.0011 276.1138 15.06397933 73899","OBJECT_TYPE":"PAYLOAD","MEAN_ELEMENT_THEORY":"SGP4","REF_FRAME":"TEME","ARG_OF_PERICENTER":"84.0011","DECAY_DATE":null,"INCLINATION":"53.0559","CENTER_NAME":"EARTH","MEAN_MOTION_DOT":"-0.00000089","LAUNCH_DATE":"2021-04-07","BSTAR":"0.00001294400000","MEAN_ANOMALY":"276.1138","OBJECT_NAME":"STARLINK-2428","EPHEMERIS_TYPE":"0","RA_OF_ASC_NODE":"324.3862","MEAN_MOTION_DDOT":"0.0000000000000","MEAN_MOTION":"15.06397933","REV_AT_EPOCH":"7389","TIME_SYSTEM":"UTC","PERIOD":"95.592","APOAPSIS":"548.197","SITE":"AFETR","NORAD_CAT_ID":"48099","ELEMENT_SET_NO":"999","PERIAPSIS":"546.243","FILE":"3526169","COUNTRY_CODE":"US","RCS_SIZE":"LARGE","TLE_LINE1":"1 48099U 21027H   22212.57462738 -.00000089  00000-0  12944-4 0  9995"},{"TLE_LINE1":"1 48100U 21027J   22212.66862305  .00000023  00000-0  20464-4 0  9995","RCS_SIZE":"LARGE","COUNTRY_CODE":"US","FILE":"3526413","PERIAPSIS":"546.176","ELEMENT_SET_NO":"999","NORAD_CAT_ID":"48100","APOAPSIS":"548.270","SITE":"AFETR","PERIOD":"95.592","TIME_SYSTEM":"UTC","REV_AT_EPOCH":"7419","MEAN_MOTION":"15.06396898","MEAN_MOTION_DDOT":"0.0000000000000","EPHEMERIS_TYPE":"0","RA_OF_ASC_NODE":"303.9685","OBJECT_NAME":"STARLINK-2430","MEAN_ANOMALY":"278.4213","LAUNCH_DATE":"2021-04-07","BSTAR":"0.00002046400000","MEAN_MOTION_DOT":"0.00000023","CENTER_NAME":"EARTH","INCLINATION":"53.0552","DECAY_DATE":null,"ARG_OF_PERICENTER":"81.6947","REF_FRAME":"TEME","MEAN_ELEMENT_THEORY":"SGP4","OBJECT_TYPE":"PAYLOAD","SEMIMAJOR_AXIS":"6925.358","TLE_LINE2":"2 48100  53.0552 303.9685 0001512  81.6947 278.4213 15.06396898 74196","ECCENTRICITY":"0.00015120","OBJECT_ID":"2021-027J","GP_ID":"209296126","CLASSIFICATION_TYPE":"U","EPOCH":"2022-07-31T16:02:49.031520"},{"RA_OF_ASC_NODE":"313.7477","EPHEMERIS_TYPE":"0","MEAN_ANOMALY":"266.6418","OBJECT_NAME":"STARLINK-2436","LAUNCH_DATE":"2021-04-07","BSTAR":"0.00005483900000","MEAN_MOTION_DOT":"0.00000535","MEAN_MOTION":"15.06402504","MEAN_MOTION_DDOT":"0.0000000000000","NORAD_CAT_ID":"48101","SITE":"AFETR","APOAPSIS":"548.344","PERIOD":"95.592","TIME_SYSTEM":"UTC","REV_AT_EPOCH":"7406","TLE_LINE1":"1 48101U 21027K   22212.71834880  .00000535  00000-0  54839-4 0  9990","RCS_SIZE":"LARGE","COUNTRY_CODE":"US","FILE":"3526413","PERIAPSIS":"546.068","ELEMENT_SET_NO":"999","OBJECT_ID":"2021-027K","GP_ID":"209295873","CLASSIFICATION_TYPE":"U","EPOCH":"2022-07-31T17:14:25.336320","TLE_LINE2":"2 48101  53.0552 313.7477 0001643  93.4759 266.6418 15.06402504 74066","SEMIMAJOR_AXIS":"6925.341","ECCENTRICITY":"0.00016430","OBJECT_TYPE":"PAYLOAD","CENTER_NAME":"EARTH","INCLINATION":"53.0552","DECAY_DATE":null,"ARG_OF_PERICENTER":"93.4759","REF_FRAME":"TEME","MEAN_ELEMENT_THEORY":"SGP4"},{"OBJECT_TYPE":"PAYLOAD","ARG_OF_PERICENTER":"84.1961","MEAN_ELEMENT_THEORY":"SGP4","REF_FRAME":"TEME","INCLINATION":"53.0541","CENTER_NAME":"EARTH","DECAY_DATE":null,"GP_ID":"209295126","EPOCH":"2022-07-31T15:04:25.667040","CLASSIFICATION_TYPE":"U","OBJECT_ID":"2021-027L","SEMIMAJOR_AXIS":"6925.362","TLE_LINE2":"2 48102  53.0541 304.1556 0001228  84.1961 275.9168 15.06395591 74183","ECCENTRICITY":"0.00012280","REV_AT_EPOCH":"7418","SITE":"AFETR","APOAPSIS":"548.078","NORAD_CAT_ID":"48102","TIME_SYSTEM":"UTC","PERIOD":"95.592","PERIAPSIS":"546.377","ELEMENT_SET_NO":"999","TLE_LINE1":"1 48102U 21027L   22212.62807485  .00000569  00000-0  57078-4 0  9997","FILE":"3526413","COUNTRY_CODE":"US","RCS_SIZE":"LARGE","MEAN_MOTION_DOT":"0.00000569","RA_OF_ASC_NODE":"304.1556","EPHEMERIS_TYPE":"0","LAUNCH_DATE":"2021-04-07","BSTAR":"0.00005707800000","MEAN_ANOMALY":"275.9168","OBJECT_NAME":"STARLINK-2437","MEAN_MOTION":"15.06395591","MEAN_MOTION_DDOT":"0.0000000000000"}];
